RADUGA 1 [-]            
1 08513U 75123A   23066.57550769 -.00000079  00000+0  00000+0 0  9991
2 08513   5.8883 284.9089 0006458 220.1911 300.1092  1.00296599182805
RADUGA 2 [-]            
1 09416U 76092A   23066.86447016 -.00000201  00000+0  00000+0 0  9999
2 09416   6.5526 286.9443 0027228   6.8168 269.1658  1.00270031117338
RADUGA 3 [-]            
1 10159U 77071A   23066.21292241  .00000099  00000+0  00000+0 0  9994
2 10159   7.1735 289.6378 0008146 242.0628 122.3477  1.00203630165033
RADUGA 4 [-]            
1 10987U 78073A   23066.57594351 -.00000112  00000+0  00000+0 0  9999
2 10987   7.8055 293.2555 0008577  11.8633 142.2304  1.00351163107590
RADUGA 5 [-]            
1 11343U 79035A   23066.53182944 -.00000061  00000+0  00000+0 0  9995
2 11343   8.2696 296.1028 0006388 170.5781 321.8251  1.00248085117343
RADUGA 6 [-]            
1 11708U 80016A   23066.82959023 -.00000333  00000+0  00000+0 0  9995
2 11708   8.6371 299.2638 0002179 185.4207  82.6026  1.00305805110153
RADUGA 7 [-]            
1 12003U 80081A   23066.41191965 -.00000218  00000+0  00000+0 0  9996
2 12003   8.8279 301.2740 0008467 271.0515  72.4116  1.00252149111294
RADUGA 8 [-]            
1 12351U 81027A   23066.85475535 -.00000075  00000+0  00000+0 0  9990
2 12351   9.1596 301.8291 0080875 235.2348  99.1495  1.00343785110520
RADUGA 9 [-]            
1 12618U 81069A   23066.85998203 -.00000341  00000+0  00000+0 0  9990
2 12618   9.3899 304.9007 0003965 140.7133 133.8865  1.00324342 35330
RADUGA 10 [-]           
1 12897U 81102A   23066.86244253 -.00000153  00000+0  00000+0 0  9998
2 12897   9.4784 305.9121 0005257 180.4541  70.8314  1.00252798105333
RADUGA 11 [-]           
1 13669U 82113A   23066.84170358 -.00000123  00000+0  00000+0 0  9998
2 13669  11.5791 319.9582 0037796 260.0538  11.2533  0.97709108109831
RADUGA 12 [-]           
1 13974U 83028A   23066.86255005 -.00000148  00000+0  00000+0 0  9995
2 13974  10.6660 315.8669 0002728  97.4721 142.2539  1.00292596157375
RADUGA 13 [-]           
1 14307U 83088A   23066.45327226 -.00000159  00000+0  00000+0 0  9994
2 14307  11.8391 321.4895 0016092  46.3723 146.9682  0.98175256107181
RADUGA 14 [-]           
1 14725U 84016A   23067.49075682 -.00000094  00000+0  00000+0 0  9999
2 14725  10.8915 319.7132 0005033 131.1477 327.0597  1.00245072106085
RADUGA 15 [-]           
1 15057U 84063A   23066.87933458 -.00000367  00000+0  00000+0 0  9998
2 15057  11.0193 320.7041 0005245 158.2867 120.8372  1.00214290129098
RADUGA 16 [-]           
1 15946U 85070A   23067.41842306  .00000067  00000+0  00000+0 0  9992
2 15946  11.5122 325.4217 0001867 149.0039  67.0024  1.00365520110217
RADUGA 17 [-]           
1 16250U 85107A   23066.38507288  .00000106  00000+0  00000+0 0  9998
2 16250  11.6447 326.8519 0012705 187.9543 345.5265  1.00165784139673
RADUGA 18 [-]           
1 16497U 86007A   23067.49168501 -.00000045  00000+0  00000+0 0  9998
2 16497  12.4640 329.5842 0074232 170.1984 118.3365  0.98811275134081
RADUGA 19 [-]           
1 17046U 86082A   23065.99285826 -.00000199  00000+0  00000+0 0  9995
2 17046  12.9222 333.5729 0013035 150.2060  32.0696  0.98462062131116
RADUGA 20 [-]           
1 17611U 87028A   23066.48848245 -.00000066  00000+0  00000+0 0  9992
2 17611  14.9550 337.0584 0030886 141.5599 286.4973  0.95960677126828
RADUGA 21 [-]           
1 18631U 87100A   23067.29866667 -.00000037  00000+0  00000+0 0  9992
2 18631  13.0205 334.3013 0003535 128.7708  52.9601  1.00359430129075
RADUGA 22 [-]           
1 19596U 88095A   23066.53272080 -.00000002  00000+0  00000+0 0  9995
2 19596  13.0351 338.6905 0007467 138.8815 306.0537  1.00159742109640
RADUGA 23 [-]           
1 19928U 89030A   23066.82697763 -.00000301  00000+0  00000+0 0  9997
2 19928  13.1985 340.5089 0020959 166.9241  52.1844  1.00350847122840
RADUGA-1 1 [-]          
1 20083U 89048A   23065.86802785  .00000032  00000+0  00000+0 0  9995
2 20083  13.9744 343.6163 0022653 119.9190  72.1183  0.98706854119445
RADUGA 24 [-]           
1 20367U 89098A   23064.93748053  .00000114  00000+0  00000+0 0  9990
2 20367  13.7942 342.7463 0002034 137.4401  65.4963  1.00284925120944
RADUGA 25 [-]           
1 20499U 90016A   23065.43578494  .00000068  00000+0  00000+0 0  9992
2 20499  13.5670 343.4352 0004987 139.5730  64.5413  1.00178128120888
RADUGA 26 [-]           
1 21016U 90112A   23066.82708538 -.00000276  00000+0  00000+0 0  9995
2 21016  13.9065 346.6737 0007585  95.8520 114.6160  1.00296632118251
RADUGA-1 2 [-]          
1 21038U 90116A   23065.78616682 -.00000068  00000+0  00000+0 0  9994
2 21038  13.9476 346.7505 0008673 106.6653  63.8612  1.00329349 35327
RADUGA 27 [-]           
1 21132U 91014A   23065.93094118  .00000073  00000+0  00000+0 0  9993
2 21132  14.4539 346.2194 0003891  92.3744 112.3443  1.00365006117295
RADUGA 28 [-]           
1 21821U 91087A   23064.92051087  .00000118  00000+0  00000+0 0  9994
2 21821  14.2515 350.0287 0007321 123.2505  65.9522  1.00210856114299
RADUGA 29 [-]           
1 22557U 93013A   23066.82894437 -.00000337  00000+0  00000+0 0  9991
2 22557  14.4928 354.1822 0006896 114.8624  96.9280  1.00368419109670
RADUGA 30 [-]           
1 22836U 93062A   23065.85118743 -.00000049  00000+0  00000+0 0  9996
2 22836  14.5516 356.1779 0001625   9.9279 173.7389  1.00271892 33984
RADUGA-1 3 [-]          
1 22981U 94008A   23066.53261311  .00000003  00000+0  00000+0 0  9993
2 22981  14.6388 357.3191 0003901  97.7432 325.9394  1.00220063106475
RADUGA 31 [-]           
1 23010U 94012A   23066.82883704 -.00000313  00000+0  00000+0 0  9995
2 23010  14.6082 357.3112 0005560  98.4309 106.9449  1.00313037106345
RADUGA 32 [-]           
1 23448U 94087A   23066.48817514 -.00000057  00000+0  00000+0 0  9995
2 23448  14.6158   0.0423 0004499 205.9044 204.8291  1.00270679120873
RADUGA-1 4 [-]          
1 25642U 99010A   23066.86393237 -.00000184  00000+0  00000+0 0  9998
2 25642  15.2885  11.5304 0001773 273.1431 273.4396  1.00354552 87940
RADUGA-1 5 [-]          
1 26477U 00049A   23066.53462644 -.00000100  00000+0  00000+0 0  9990
2 26477  13.2802  16.6315 0005558  59.2868 354.7647  1.00340601 82413
RADUGA-1 6 [-]          
1 26936U 01045A   23066.47063125 -.00000053  00000+0  00000+0 0  9998
2 26936  13.5041  23.0126 0015521 169.4505  16.4672  0.97743773 76893
RADUGA-1 7 [-]          
1 28194U 04010A   23066.53312047 -.00000064  00000+0  00000+0 0  9990
2 28194  12.2736  29.7815 0001342 188.1090 212.8336  1.00164485 69410
RADUGA-1M 1 [-]         
1 32373U 07058A   23066.53411940  .00000000  00000+0  00000+0 0  9990
2 32373   7.4801  62.1644 0003754 336.6794  41.2131  0.99392478 40490
RADUGA-1 8 [-]          
1 34264U 09010A   23066.56879601  .00000130  00000+0  00000+0 0  9990
2 34264   9.7442  52.0639 0014131   4.8658 352.3021  0.99820924 51211
RADUGA-1M 2 [+]         
1 36358U 10002A   23066.86740560 -.00000183  00000+0  00000+0 0  9992
2 36358   0.5141  96.4133 0003872 270.2432 195.9378  1.00271629 48006
RADUGA-1M 3 [+]         
1 39375U 13062A   23064.27324831  .00000152  00000+0  00000+0 0  9990
2 39375   2.8942  86.8758 0000984 194.2094  15.0007  1.00275341 34098
